SHENZHOU-23 (SZ-23)     
1 69180U 26113A   26170.53640025  .00019225  00000+0  22646-3 0  9999
2 69180  41.4696 307.7047 0007363  97.4720 262.6956 15.60899851293644
STARLINK-37380          
1 69182U 26114A   26170.30950645  .00155183  00000+0  87980-3 0  9995
2 69182  53.1573 191.9170 0000897  60.5184 299.5927 15.78096568  5102
STARLINK-37089          
1 69183U 26114B   26170.56189601  .00216276  00000+0  12147-2 0  9993
2 69183  53.1573 190.6452 0001821 145.5304 214.5836 15.78117732  5145
STARLINK-37428          
1 69184U 26114C   26170.30716494  .00219219  00000+0  12307-2 0  9990
2 69184  53.1574 191.9018 0000895  84.4932 275.6191 15.78118730  5104
STARLINK-37237          
1 69185U 26114D   26170.55782330  .00187265  00000+0  10656-2 0  9990
2 69185  53.1570 190.6189 0004354 326.4394  33.6351 15.77904777  5148
STARLINK-37365          
1 69186U 26114E   26170.87475777  .00263945  00000+0  14798-2 0  9991
2 69186  53.1570 189.0404 0005012 172.2881 187.8219 15.78010519  5194
STARLINK-37209          
1 69187U 26114F   26170.30398798  .00226391  00000+0  12800-2 0  9993
2 69187  53.1574 191.8801 0003971 325.8875  34.1890 15.77934111  5104
STARLINK-37359          
1 69188U 26114G   26170.36684720  .00206903  00000+0  11639-2 0  9999
2 69188  53.1572 191.5612 0001624  49.1673 310.9489 15.78111414  5119
STARLINK-37440          
1 69189U 26114H   26170.83335647 -.02323840  00000+0 -31440-1 0  9998
2 69189  53.1600 188.9084 0001228  94.2351 193.5790 15.60532316  5242
STARLINK-37282          
1 69190U 26114J   26170.10704482  .00060964  00000+0  35216-3 0  9995
2 69190  53.1573 192.7822 0002057 320.1129  39.9741 15.78072220  5073
STARLINK-37422          
1 69191U 26114K   26170.33869843  .00177680  00000+0  88200-3 0  9999
2 69191  53.1569 191.3733 0000877  96.1796 263.9327 15.80955268  5112
STARLINK-37424          
1 69192U 26114L   26170.58335648 -.00063638  00000+0 -36506-3 0  9999
2 69192  53.1567 190.4080 0000990  87.5567  99.3356 15.78074691  5204
STARLINK-36666          
1 69193U 26114M   26170.83335647 -.02485128  00000+0 -17113-1 0  9992
2 69193  53.1588 188.9040 0000890  86.5655 205.4030 15.77537179  5249
STARLINK-37355          
1 69194U 26114N   26170.59106019  .00071454  00000+0  36299-3 0  9992
2 69194  53.1568 190.1013 0000318  30.9677 329.1364 15.80847865  5159
STARLINK-37166          
1 69195U 26114P   26170.46311835  .00199638  00000+0  99276-3 0  9992
2 69195  53.1562 190.7238 0002690  84.7330 275.3999 15.80849847  5133
STARLINK-36933          
1 69196U 26114Q   26170.52707635  .00219925  00000+0  10835-2 0  9992
2 69196  53.1566 190.4134 0001153  90.2431 269.8724 15.80996248  5140
STARLINK-37419          
1 69197U 26114R   26170.52557557  .00193202  00000+0  95633-3 0  9998
2 69197  53.1566 190.4016 0001082 102.3157 257.7987 15.80970914  5140
STARLINK-37321          
1 69198U 26114S   26170.58804270  .00235275  00000+0  11572-2 0  9998
2 69198  53.1568 190.0824 0000925  89.3523 270.7606 15.80988652  5154
STARLINK-37406          
1 69199U 26114T   26170.83335647 -.02538402  00000+0 -30911-1 0  9993
2 69199  53.1603 189.0403 0001375  93.5896 131.1368 15.63539567  5249
STARLINK-37761          
1 69200U 26114U   26170.83335647 -.02512385  00000+0 -30612-1 0  9996
2 69200  53.1602 189.0346 0001405  93.2839 134.0461 15.63484346  5245
STARLINK-37754          
1 69201U 26114V   26170.83335647 -.02582675  00000+0 -26959-1 0  9995
2 69201  53.1603 188.9475 0000930  82.6996 187.2400 15.67415813  5246
STARLINK-37649          
1 69202U 26114W   26170.52182050  .00134909  00000+0  67490-3 0  9996
2 69202  53.1567 190.3765 0001235 107.7453 252.3705 15.80921915  5142
STARLINK-37604          
1 69203U 26114X   26170.52107579  .00171057  00000+0  84994-3 0  9993
2 69203  53.1565 190.3717 0000969  66.3182 293.7942 15.80954621  5142
STARLINK-37669          
1 69204U 26114Y   26170.83335647 -.02557610  00000+0 -27379-1 0  9996
2 69204  53.1599 188.9309 0001004  92.8131 185.0892 15.66764252  5240
STARLINK-37691          
1 69205U 26114Z   26170.53901434  .00212187  00000+0  11906-2 0  9990
2 69205  53.1575 190.4918 0000784  80.1477 279.9633 15.78151231  5141
STARLINK-37671          
1 69206U 26114AA  26170.53170458  .00221221  00000+0  12401-2 0  9995
2 69206  53.1578 190.4445 0000901  95.3413 264.7711 15.78146608  5140
STARLINK-37647          
1 69207U 26114AB  26170.51957560  .00177313  00000+0  88025-3 0  9999
2 69207  53.1563 190.3615 0000888  77.2742 282.8380 15.80954512  5148
STARLINK-37562          
1 69208U 26114AC  26170.53376127  .00255760  00000+0  14243-2 0  9999
2 69208  53.1581 190.4571 0000908 115.9955 244.1160 15.78194183  5144
STARLINK-37682          
1 69209U 26114AD  26170.51657452  .00162256  00000+0  80745-3 0  9999
2 69209  53.1562 190.3405 0001073 101.6084 258.5059 15.80948259  5148
